{"type":"FeatureCollection","features":[{"type":"Feature","properties":{"province_code":"01","province":"Araba/Álava"},"geometry":{"type":"MultiPolygon","coordinates":[[[[-2.250807096999949,42.89569117600007],[-2.295699358999968,42.74663940000005],[-2.334329148999927,42.66213480700003],[-2.43492998399995,42.63050058600004],[-2.420719172999952,42.489269353000054],[-2.651812487999962,42.494419899000036],[-2.681149991999973,42.54671302700007],[-2.711785426999938,42.601319673000035],[-2.858067526999946,42.63838417900007],[-3.028062646999956,42.74663940000005],[-3.189579292999952,42.862024235000035],[-3.074271397999951,42.96592967200007],[-3.141839496999978,43.16113650300008],[-2.998880339999971,43.16918428300005],[-2.816367095999965,43.04464778800008],[-2.546386833999975,43.08800894500007],[-2.562061608999954,42.98920557100007],[-2.525732871999935,42.96073805700007],[-2.250807096999949,42.89569117600007]],[[-2.919311927999956,42.74663940000005],[-2.739263430999927,42.66524196800003],[-2.624483891999944,42.70163645400004],[-2.645826758999931,42.74663940000005],[-2.725083635999965,42.80303476300003],[-2.919311927999956,42.74663940000005]]]]}},{"type":"Feature","properties":{"province_code":"02","province":"Albacete"},"geometry":{"type":"MultiPolygon","coordinates":[[[[-2.551273856999956,38.08411801700004],[-2.450561726999979,38.20808235900006],[-2.490469846999929,38.37465542100006],[-2.588244433999932,38.48254818300006],[-2.762069113999928,38.53277962800007],[-2.651549331999945,38.71401604600004],[-2.856063713999959,38.93849370800007],[-2.742931062999958,39.318295007000074],[-2.526012224999931,39.33455322900005],[-2.272929648999934,39.241457335000064],[-2.07380322299997,39.27898535700007],[-2.066277838999952,39.35023274200006],[-1.948536339999976,39.32650038300005],[-1.781006484999978,39.29273252100006],[-1.505244664999964,39.41763913300008],[-1.209847096999965,39.30276010500006],[-1.219333261999964,39.03303567700004],[-1.138901791999956,38.95183704500005],[-0.965578014999949,38.91021880100004],[-0.928884604999951,38.783840131000034],[-1.026869790999967,38.65550941400005],[-1.079183152999974,38.68436993600005],[-1.181650855999976,38.74089987800005],[-1.396023774999946,38.68040042800004],[-1.524251939999942,38.350445904000026],[-1.631424142999947,38.31384282600004],[-1.76037458299993,38.36399232000008],[-1.948536339999976,38.31537537600008],[-2.053403906999961,38.28827985700008],[-2.218635899999924,38.186757503000024],[-2.341195296999956,38.025868986000035],[-2.551273856999956,38.08411801700004]]]]}},{"type":"Feature","properties":{"province_code":"03","province":"Alicante/Alacant"},"geometry":{"type":"MultiPolygon","coordinates":[[[[-0.762135483999941,37.84700783900007],[-0.932798724999941,38.01833479700008],[-1.008315391999929,38.09414515100008],[-0.99167323599994,38.26338831500004],[-1.064809203999971,38.397996385000056],[-1.026869790999967,38.65550941400005],[-0.928884604999951,38.783840131000034],[-0.796602163999978,38.738405003000025],[-0.60333057899993,38.70467756000005],[-0.568792643999927,38.78965733500007],[-0.345531820999952,38.86366200700007],[-0.037615968999944,38.886413436000055],[0.191088635000028,38.784880147000024],[0.08890847300006,38.663436457000046],[-0.484290830999953,38.32835984600007],[-0.762135483999941,37.84700783900007]]]]}},{"type":"Feature","properties":{"province_code":"04","province":"Almería"},"geometry":{"type":"MultiPolygon","coordinates":[[[[-3.128676713999937,36.75088743200007],[-2.995115218999956,36.976808247000065],[-2.998931681999977,37.071081510000056],[-2.855628899999942,37.24974608700006],[-2.678221313999927,37.22920961800003],[-2.613200226999936,37.40335264000004],[-2.376303743999927,37.53389768900007],[-2.277388060999954,37.86610857800008],[-2.207788807999975,37.91624804600008],[-2.012264873999925,37.850976209000066],[-1.948536339999976,37.591588745000024],[-1.849333891999947,37.470838763000074],[-1.629967653999927,37.37515068600004],[-1.948536339999976,36.97543232700008],[-2.137519835999967,36.73830866600008],[-2.36790502599996,36.82983310900005],[-2.531093560999977,36.820015574000024],[-2.736964504999946,36.68863468300003],[-3.128676713999937,36.75088743200007]]]]}},{"type":"Feature","properties":{"province_code":"05","province":"Ávila"},"geometry":{"type":"MultiPolygon","coordinates":[[[[-4.160293592999949,40.689853421000066],[-4.301553650999949,40.56649845800007],[-4.336584525999967,40.422896233000074],[-4.579075753999973,40.21719598300007],[-4.724251926999955,40.263861027000075],[-4.972605187999932,40.12611076400003],[-5.33601643399993,40.11585607100005],[-5.37045853799998,40.25381799000007],[-5.54952228999997,40.20616189300006],[-5.737602367999955,40.294163009000044],[-5.663079468999968,40.427672750000056],[-5.489815351999937,40.45720730100004],[-5.380140627999936,40.65979432900008],[-5.181298763999962,40.801390033000075],[-5.105121293999957,40.96037075700008],[-5.124956972999939,41.13205692400004],[-4.722127432999969,41.14933016300006],[-4.408897421999939,40.65187239100004],[-4.319343841999967,40.64759940300007],[-4.274096251999936,40.67707234200003],[-4.160293592999949,40.689853421000066]]]]}},{"type":"Feature","properties":{"province_code":"06","province":"Badajoz"},"geometry":{"type":"MultiPolygon","coordinates":[[[[-7.231467159999966,39.278431039000054],[-7.128146068999968,39.35749501400005],[-7.061542638999981,39.337049113000035],[-7.007570881999925,39.42166548300003],[-6.789971260999948,39.36655520700003],[-6.756964795999977,39.20004452200004],[-6.345784378999952,39.170139464000044],[-6.14577795699995,39.04822418300006],[-6.029104066999935,39.107416527000055],[-5.982241644999931,39.06808181700006],[-5.782190344999947,39.12143593900004],[-5.64497644599993,39.096389817000045],[-5.573726121999925,39.19207830000005],[-5.391578459999948,39.18445466400004],[-5.321173343999931,39.31767948000004],[-4.952554687999964,39.395038562000025],[-4.940783379999971,39.395164385000044],[-4.75541113099996,39.415760083000066],[-4.686936371999934,39.44972949400005],[-4.728898578999974,39.22200726400007],[-4.945899382999926,39.03854339900005],[-4.851420021999957,38.90571847600006],[-5.046995845999959,38.72913357700003],[-5.157510209999941,38.715110150000044],[-5.548924649999947,38.43563351700004],[-5.534927881999977,38.212443187000076],[-5.584845565999956,38.13175204100003],[-5.694119016999935,38.10408684500004],[-5.722340223999936,38.180294436000054],[-5.830018314999961,38.17321884100005],[-5.961068241999953,38.00594222700005],[-6.180307717999938,37.94107812100003],[-6.397533283999962,38.04877605000007],[-6.551884134999966,38.02158520100005],[-6.931738572999961,38.208378046000064],[-7.107952585999953,38.188121617000036],[-7.309237154999948,38.45834733200007],[-7.203134912999928,38.75101749100003],[-6.971092577999968,39.02166330700004],[-7.21837205199995,39.20881564500007],[-7.231467159999966,39.278431039000054]]]]}},{"type":"Feature","properties":{"province_code":"07","province":"Balears, Illes"},"geometry":{"type":"MultiPolygon","coordinates":[[[[1.61637595600007,39.070447785000056],[1.396175869000047,38.841801529000065],[1.175761741000031,38.95557891300007],[1.394260415000076,39.089447353000025],[1.543697635000058,39.11860820700008],[1.61637595600007,39.070447785000056]]],[[[1.458835220000026,38.66291810800004],[1.353390452000042,38.65190655500004],[1.393817281000054,38.741213766000044],[1.481776609000065,38.745531920000076],[1.458835220000026,38.66291810800004]]],[[[3.437054304000071,39.68973721100008],[3.26526135000006,39.39747333200006],[3.081124967000051,39.28748341700003],[3.01632659400002,39.30759761300004],[2.79808736800004,39.37773774600004],[2.67893360100004,39.52226140500005],[2.485350030000063,39.49064992900003],[2.340909732000057,39.58673751500004],[2.959977369000057,39.90987052000003],[3.01632659400002,39.91686644200007],[3.184905147000052,39.884060729000055],[3.204320990000042,39.776446657000065],[3.437054304000071,39.71800772200004],[3.451534516000038,39.714371766000056],[3.437054304000071,39.68973721100008]]],[[[3.707629519000022,39.99047263600005],[4.118066838000061,40.092293623000046],[4.294636685000057,39.95753779700004],[3.939636674000042,39.87342882000007],[3.707629519000022,39.99047263600005]]]]}},{"type":"Feature","properties":{"province_code":"08","province":"Barcelona"},"geometry":{"type":"MultiPolygon","coordinates":[[[[1.645323423000036,41.19562168500005],[1.392531732000066,41.575200163000034],[1.419960815000024,41.77239235300004],[1.560077088000071,41.77570425500005],[1.615826856000069,41.83881758200005],[1.669516699000042,42.004578793000064],[1.719764471000076,42.159713002000046],[1.691403382000033,42.27294634200007],[1.842310683000051,42.306438436000064],[2.040828691000058,42.28963858100008],[2.082456009000055,42.143053062000035],[2.466923275000056,42.055813501000046],[2.46550322500002,42.004578793000064],[2.463374435000048,41.92777311700007],[2.359437906000039,41.827855879000026],[2.545393175000072,41.73319066400006],[2.748314480000033,41.73205045200007],[2.778512932000069,41.64880767200003],[2.290318358000036,41.46407862900003],[2.099489328000061,41.29370103800005],[1.645323423000036,41.19562168500005]]]]}},{"type":"Feature","properties":{"province_code":"09","province":"Burgos"},"geometry":{"type":"MultiPolygon","coordinates":[[[[-3.141839496999978,43.16113650300008],[-3.074271397999951,42.96592967200007],[-3.189579292999952,42.862024235000035],[-3.028062646999956,42.74663940000005],[-2.858067526999946,42.63838417900007],[-3.061592807999943,42.62980966600003],[-3.073675281999954,42.54671302700007],[-3.102354272999946,42.349474644000054],[-3.100989139999967,42.25671424300003],[-3.099689932999979,42.16843345500007],[-2.913637747999928,42.022838568000054],[-3.139240858999926,41.83477819600006],[-3.274583241999949,41.83189771600007],[-3.541595980999944,41.57760252000003],[-3.744672524999942,41.48098419100006],[-3.980689378999955,41.58336631900005],[-4.040900398999952,41.76834453300006],[-3.99362659999997,41.98656793400005],[-4.077346667999961,42.12659144200006],[-4.216502820999949,42.19725448100007],[-4.300569014999951,42.40049547900003],[-4.257553179999945,42.64694447000005],[-4.104466642999967,42.74663940000005],[-4.081458444999953,42.76162308600004],[-3.859018760999959,42.81856990600005],[-3.834423786999935,42.938972024000066],[-3.949682202999952,42.94899984700004],[-3.913778604999948,42.98920557100007],[-3.865122602999975,43.043691746000036],[-3.784357881999938,43.08345931200006],[-3.716995342999951,43.116627806000054],[-3.641969537999955,43.153569599000036],[-3.417607936999957,43.13331597700005],[-3.344420395999975,43.159113330000025],[-3.261622676999934,43.18829810600005],[-3.141839496999978,43.16113650300008]]],[[[-2.624483891999944,42.70163645400004],[-2.739263430999927,42.66524196800003],[-2.919311927999956,42.74663940000005],[-2.725083635999965,42.80303476300003],[-2.645826758999931,42.74663940000005],[-2.624483891999944,42.70163645400004]]]]}},{"type":"Feature","properties":{"province_code":"10","province":"Cáceres"},"geometry":{"type":"MultiPolygon","coordinates":[[[[-6.865144205999968,40.27069454400004],[-6.610104657999955,40.27651300400004],[-6.221805219999965,40.471405204000064],[-5.971416043999966,40.29927685800004],[-5.810616915999958,40.33994574500008],[-5.737602367999955,40.294163009000044],[-5.54952228999997,40.20616189300006],[-5.37045853799998,40.25381799000007],[-5.33601643399993,40.11585607100005],[-5.387708429999975,39.894322626000076],[-5.285541595999973,39.766466276000074],[-5.165370677999931,39.77280950900007],[-5.180963280999947,39.586988113000075],[-4.952554687999964,39.395038562000025],[-5.321173343999931,39.31767948000004],[-5.391578459999948,39.18445466400004],[-5.573726121999925,39.19207830000005],[-5.64497644599993,39.096389817000045],[-5.782190344999947,39.12143593900004],[-5.982241644999931,39.06808181700006],[-6.029104066999935,39.107416527000055],[-6.14577795699995,39.04822418300006],[-6.345784378999952,39.170139464000044],[-6.756964795999977,39.20004452200004],[-6.789971260999948,39.36655520700003],[-7.007570881999925,39.42166548300003],[-7.061542638999981,39.337049113000035],[-7.128146068999968,39.35749501400005],[-7.231467159999966,39.278431039000054],[-7.314967525999975,39.45592123800003],[-7.542845391999947,39.66278609400007],[-7.023810303999937,39.68725015500007],[-6.878365538999958,39.97590076900008],[-7.006525336999971,40.15988254000007],[-6.951298650999945,40.257446025000036],[-6.865144205999968,40.27069454400004]]]]}},{"type":"Feature","properties":{"province_code":"11","province":"Cádiz"},"geometry":{"type":"MultiPolygon","coordinates":[[[[-6.34556101499993,36.79876695000007],[-6.331072252999945,36.898838021000074],[-5.935209098999962,36.847375810000074],[-5.664653329999965,36.95756081900004],[-5.54474731199997,36.936509],[-5.47262113599993,37.03868599700007],[-5.414262848999954,36.95839517200005],[-5.316878931999952,37.015009159000044],[-5.224678875999928,36.96077115300005],[-5.142422898999939,37.00389107400008],[-5.117464776999952,36.87973427000003],[-5.30073320899993,36.85192491000004],[-5.32042619799995,36.70711113300007],[-5.469907546999934,36.560362965000024],[-5.252405121999971,36.31127557600007],[-5.339031880999926,36.15336726400005],[-5.34268878499995,36.15246825200006],[-5.344010474999948,36.15263353300003],[-5.348696295999957,36.15260727000003],[-5.351427162999926,36.153360629000076],[-5.41250135599995,36.159199056000034],[-5.450261994999948,36.07186946600007],[-5.595814273999963,36.01917234300004],[-6.03618974099993,36.19560937400007],[-6.229835517999959,36.41778783800004],[-6.227587772999925,36.56634724200006],[-6.41435097599998,36.68273366000005],[-6.422016956999926,36.74371701300004],[-6.34556101499993,36.79876695000007]],[[-5.663598677999971,36.56329076900005],[-5.608868866999956,36.48657911400005],[-5.499919333999969,36.508100314000046],[-5.550790067999969,36.56559954100004],[-5.663598677999971,36.56329076900005]]]]}},{"type":"Feature","properties":{"province_code":"12","province":"Castellón/Castelló"},"geometry":{"type":"MultiPolygon","coordinates":[[[[-0.188466906999963,39.72195454700005],[-0.329219803999933,39.780536202000064],[-0.60046200499994,39.75570304100006],[-0.797643189999974,39.88107655500005],[-0.830521448999946,39.94153463300006],[-0.796602163999978,39.99058074800007],[-0.749893595999936,40.03997822800005],[-0.656249431999925,40.057788584000036],[-0.544115974999954,40.22414966100007],[-0.303614239999945,40.36619479600006],[-0.299269303999949,40.57305166900005],[-0.354661862999933,40.660299242000065],[-0.183231364999926,40.76744503500004],[0.059323800000072,40.70419059400007],[0.170485307000035,40.73293597800006],[0.216369,40.70498446200003],[0.515238434000025,40.522918609000044],[0.216369,40.18157413700004],[0.107986643000061,40.057788584000036],[-0.188466906999963,39.72195454700005]]]]}},{"type":"Feature","properties":{"province_code":"13","province":"Ciudad Real"},"geometry":{"type":"MultiPolygon","coordinates":[[[[-4.054150205999974,39.51743841100006],[-4.128533820999962,39.376146377000055],[-3.851628925999933,39.26994509100007],[-3.538233068999943,39.31171468000008],[-3.344420395999975,39.41874659700005],[-3.233414729999936,39.480048827000076],[-3.139240858999926,39.477365227000064],[-2.931765930999973,39.471452973000055],[-2.742931062999958,39.318295007000074],[-2.856063713999959,38.93849370800007],[-2.651549331999945,38.71401604600004],[-2.762069113999928,38.53277962800007],[-2.889850976999981,38.462638265000066],[-3.139240858999926,38.46489668100003],[-3.344420395999975,38.466754739000066],[-4.268894880999937,38.34721307900003],[-5.046995845999959,38.72913357700003],[-4.851420021999957,38.90571847600006],[-4.945899382999926,39.03854339900005],[-4.728898578999974,39.22200726400007],[-4.686936371999934,39.44972949400005],[-4.539222174999963,39.51986420600008],[-4.240896004999968,39.49254609500008],[-4.081456481999965,39.57290460000007],[-4.054150205999974,39.51743841100006]]],[[[-4.75541113099996,39.415760083000066],[-4.940783379999971,39.395164385000044],[-4.847077011999943,39.53988747600005],[-4.775038716999973,39.505175466000026],[-4.75541113099996,39.415760083000066]]]]}},{"type":"Feature","properties":{"province_code":"14","province":"Córdoba"},"geometry":{"type":"MultiPolygon","coordinates":[[[[-4.653374485999962,37.25585549700003],[-4.907746116999931,37.47366142100003],[-5.00965107199994,37.699528745000066],[-5.377740512999935,37.61459455600004],[-5.334483103999958,37.797548935000066],[-5.584845565999956,38.13175204100003],[-5.534927881999977,38.212443187000076],[-5.548924649999947,38.43563351700004],[-5.157510209999941,38.715110150000044],[-5.046995845999959,38.72913357700003],[-4.268894880999937,38.34721307900003],[-4.179894416999957,38.157407841000065],[-4.267173930999945,38.02107698300006],[-4.274295783999946,37.81107461800008],[-4.197045197999955,37.620131299000036],[-4.000834801999929,37.40211510200004],[-4.220505426999978,37.32651437900006],[-4.328132990999961,37.18407053800007],[-4.400380544999962,37.26671970700005],[-4.543513949999976,37.224323008000056],[-4.653374485999962,37.25585549700003]]]]}},{"type":"Feature","properties":{"province_code":"15","province":"Coruña, A"},"geometry":{"type":"MultiPolygon","coordinates":[[[[-7.699736359999974,43.735114829000054],[-7.76473933799997,43.50519325300007],[-7.933317697999939,43.22848987400005],[-7.929623812999978,43.08345931200006],[-7.919590770999946,42.98920557100007],[-7.999684701999968,42.84885816700006],[-8.198368989999949,42.84230615100006],[-8.462765201999957,42.74663940000005],[-8.74396018899995,42.647217322000074],[-9.017827441999941,42.58733618300005],[-9.02682717099998,42.74663940000005],[-9.202400372999932,42.95087113300008],[-9.120779109999944,43.14404125000004],[-8.843692035999936,43.30622344500006],[-8.325284314999976,43.37866949800008],[-8.11929762099993,43.63331602000005],[-7.699736359999974,43.735114829000054]]]]}},{"type":"Feature","properties":{"province_code":"16","province":"Cuenca"},"geometry":{"type":"MultiPolygon","coordinates":[[[[-1.505244664999964,39.41763913300008],[-1.781006484999978,39.29273252100006],[-1.948536339999976,39.32650038300005],[-2.066277838999952,39.35023274200006],[-2.07380322299997,39.27898535700007],[-2.272929648999934,39.241457335000064],[-2.526012224999931,39.33455322900005],[-2.742931062999958,39.318295007000074],[-2.931765930999973,39.471452973000055],[-2.919694152999966,39.633506287000046],[-3.107715273999929,39.87451116600005],[-3.139240858999926,39.98627192200007],[-3.161419552999973,40.06489718900008],[-3.067810462999944,40.15802383600004],[-2.86607866099996,40.18296014900005],[-2.792532144999939,40.38931512000005],[-2.544060125999977,40.435775310000054],[-2.382350499999973,40.59480722100005],[-2.254048626999975,40.62914432400004],[-1.948536339999976,40.58686117800005],[-1.805663978999974,40.397994819000075],[-1.448831388999963,40.14535862400004],[-1.361223681999945,40.02141519600008],[-1.165153812999961,40.010108943000034],[-1.14236135699997,39.97185564500006],[-1.283472918999962,39.714247399000044],[-1.498262933999968,39.54773375100007],[-1.505244664999964,39.41763913300008]]]]}},{"type":"Feature","properties":{"province_code":"17","province":"Girona"},"geometry":{"type":"MultiPolygon","coordinates":[[[[2.778512932000069,41.64880767200003],[2.748314480000033,41.73205045200007],[2.545393175000072,41.73319066400006],[2.359437906000039,41.827855879000026],[2.463374435000048,41.92777311700007],[2.46550322500002,42.004578793000064],[2.466923275000056,42.055813501000046],[2.082456009000055,42.143053062000035],[2.040828691000058,42.28963858100008],[1.842310683000051,42.306438436000064],[1.731010891000039,42.49240083700005],[1.921569239000064,42.45168500400007],[2.040046137000047,42.361591643000054],[2.240354026000034,42.432130072000064],[2.547207086000071,42.34325714000005],[2.884434610000028,42.46071354600008],[3.01632659400002,42.44911129900004],[3.174022446000038,42.43523914200006],[3.173376363000045,42.43358578300007],[3.25861242000002,42.31325375100005],[3.138623568000071,42.180520225000066],[3.212316888000032,42.004578793000064],[3.208647240000062,41.919643052000026],[3.01632659400002,41.79854777000003],[2.778512932000069,41.64880767200003]]]]}},{"type":"Feature","properties":{"province_code":"18","province":"Granada"},"geometry":{"type":"MultiPolygon","coordinates":[[[[-3.777457583999933,36.73792632300007],[-3.837720898999976,36.85121444300006],[-4.240488704999962,37.00076098100004],[-4.328132990999961,37.18407053800007],[-4.220505426999978,37.32651437900006],[-4.000834801999929,37.40211510200004],[-3.850876882999955,37.40357583300005],[-3.519942897999954,37.590321551000045],[-3.344420395999975,37.58133089900008],[-3.229376891999948,37.63646845000005],[-3.139240858999926,37.64005417100003],[-2.953697711999951,37.647435304000055],[-2.791478576999964,37.899224564000065],[-2.551273856999956,38.08411801700004],[-2.341195296999956,38.025868986000035],[-2.207788807999975,37.91624804600008],[-2.277388060999954,37.86610857800008],[-2.376303743999927,37.53389768900007],[-2.613200226999936,37.40335264000004],[-2.678221313999927,37.22920961800003],[-2.855628899999942,37.24974608700006],[-2.998931681999977,37.071081510000056],[-2.995115218999956,36.976808247000065],[-3.128676713999937,36.75088743200007],[-3.443942251999943,36.706741597000075],[-3.777457583999933,36.73792632300007]]]]}},{"type":"Feature","properties":{"province_code":"19","province":"Guadalajara"},"geometry":{"type":"MultiPolygon","coordinates":[[[[-1.617433432999974,40.94374118600007],[-1.558157077999965,40.60493000300005],[-1.68160519099996,40.55841125100005],[-1.805663978999974,40.397994819000075],[-1.948536339999976,40.58686117800005],[-2.254048626999975,40.62914432400004],[-2.382350499999973,40.59480722100005],[-2.544060125999977,40.435775310000054],[-2.792532144999939,40.38931512000005],[-2.86607866099996,40.18296014900005],[-3.067810462999944,40.15802383600004],[-3.139240858999926,40.25140363000003],[-3.168355992999977,40.28946536900003],[-3.149121389999948,40.39740958500005],[-3.212937716999932,40.51012692000006],[-3.344420395999975,40.640031805000035],[-3.485499847999961,40.77941830200007],[-3.408643237999968,41.01996134800004],[-3.539573247999954,41.164993407000054],[-3.344420395999975,41.24679753000004],[-3.20737305199998,41.304245],[-3.139240858999926,41.29832823500004],[-2.697153919999948,41.25993633500008],[-2.415908782999963,41.07264280700008],[-2.051689751999959,41.14685816200006],[-1.948536339999976,41.124199711000074],[-1.828073933999974,41.09773920500004],[-1.617433432999974,40.94374118600007]]]]}},{"type":"Feature","properties":{"province_code":"20","province":"Gipuzkoa"},"geometry":{"type":"MultiPolygon","coordinates":[[[[-1.785981393999975,43.350584328000025],[-1.728903005999939,43.29608895400003],[-1.89564119299996,43.209547189000034],[-1.948536339999976,43.13659559800004],[-2.055404703999955,42.98920557100007],[-2.250807096999949,42.89569117600007],[-2.525732871999935,42.96073805700007],[-2.562061608999954,42.98920557100007],[-2.546386833999975,43.08800894500007],[-2.41284679499995,43.32108296600006],[-2.150656391999973,43.295954024000025],[-1.948536339999976,43.326232710000056],[-1.785981393999975,43.350584328000025]]]]}},{"type":"Feature","properties":{"province_code":"21","province":"Huelva"},"geometry":{"type":"MultiPolygon","coordinates":[[[[-7.512691485999937,37.52625636400006],[-7.236741906999953,37.96375162900006],[-7.013750954999978,38.040794522000056],[-6.931738572999961,38.208378046000064],[-6.551884134999966,38.02158520100005],[-6.397533283999962,38.04877605000007],[-6.180307717999938,37.94107812100003],[-6.150276743999939,37.81886115700007],[-6.451608574999966,37.72530430900008],[-6.517454419999979,37.64629216600008],[-6.406707713999936,37.59548436000006],[-6.327030582999953,37.45389024700006],[-6.372887946999981,37.05786097200007],[-6.331072252999945,36.898838021000074],[-6.34556101499993,36.79876695000007],[-6.533874216999948,36.979387658000064],[-6.876103031999946,37.14961752000005],[-7.059015679999959,37.20027082300004],[-7.401916633999974,37.17482748000003],[-7.512691485999937,37.52625636400006]]]]}},{"type":"Feature","properties":{"province_code":"22","province":"Huesca"},"geometry":{"type":"MultiPolygon","coordinates":[[[[-0.313341956999977,42.849364937000075],[-0.120433340999966,42.74663940000005],[0.010816405000071,42.697023555000044],[0.477670138000065,42.70004738500006],[0.670759356000076,42.679686692000075],[0.747495982000032,42.59837678400004],[0.705701417000057,42.48154886900005],[0.750711472000035,42.31186790300006],[0.670759356000076,42.103001832000075],[0.633083873000032,42.004578793000064],[0.580183057000056,41.86638125300004],[0.345471248000024,41.68823518100004],[0.430790904000048,41.563455926000074],[0.33594836900005,41.40743234900003],[0.216369,41.39895682300005],[-0.046887008999931,41.39583270500003],[-0.179301117999955,41.57045412400004],[-0.484974880999971,41.72928963700008],[-0.661877063999952,41.93341143600003],[-0.842480101999968,41.99612897900005],[-0.747469416999934,42.25841916300004],[-0.849627045999966,42.32804726900008],[-0.901080265999951,42.74269099800006],[-0.897151633999954,42.74663940000005],[-0.724501161999967,42.92015867100008],[-0.656193984999959,42.85935307900007],[-0.551518088999956,42.796207569000046],[-0.313341956999977,42.849364937000075]]]]}},{"type":"Feature","properties":{"province_code":"23","province":"Jaén"},"geometry":{"type":"MultiPolygon","coordinates":[[[[-4.000834801999929,37.40211510200004],[-4.197045197999955,37.620131299000036],[-4.274295783999946,37.81107461800008],[-4.267173930999945,38.02107698300006],[-4.179894416999957,38.157407841000065],[-4.268894880999937,38.34721307900003],[-3.344420395999975,38.466754739000066],[-3.139240858999926,38.46489668100003],[-2.889850976999981,38.462638265000066],[-2.762069113999928,38.53277962800007],[-2.588244433999932,38.48254818300006],[-2.490469846999929,38.37465542100006],[-2.450561726999979,38.20808235900006],[-2.551273856999956,38.08411801700004],[-2.791478576999964,37.899224564000065],[-2.953697711999951,37.647435304000055],[-3.139240858999926,37.64005417100003],[-3.229376891999948,37.63646845000005],[-3.344420395999975,37.58133089900008],[-3.519942897999954,37.590321551000045],[-3.850876882999955,37.40357583300005],[-4.000834801999929,37.40211510200004]]]]}},{"type":"Feature","properties":{"province_code":"24","province":"León"},"geometry":{"type":"MultiPolygon","coordinates":[[[[-4.737845317999927,43.02094402500006],[-4.765129168999977,42.98920557100007],[-4.889967421999927,42.84398512200005],[-4.893439531999945,42.74663940000005],[-4.91107855499996,42.44017764800003],[-5.002154599999926,42.28910468200007],[-5.230233135999981,42.25671424300003],[-5.346286238999937,42.24023303000007],[-5.376311274999978,42.04145786700008],[-5.421605511999928,42.03066667600007],[-5.472304882999936,42.04883899600003],[-5.520905723999931,42.09712998200007],[-6.784307801999944,42.25360863700007],[-6.767434739999942,42.354146867000054],[-6.828455592999944,42.450212932000056],[-7.077069196999958,42.508000681000055],[-6.948938341999963,42.74663940000005],[-6.871793013999934,42.801609978000045],[-6.824167129999978,42.91501247000008],[-6.526853526999957,42.92292197000006],[-6.438319207999939,42.98920557100007],[-6.367229880999957,43.04242850900005],[-6.060525446999975,43.06644121200003],[-5.854862098999945,42.98920557100007],[-5.77690950899995,42.98920557100007],[-5.702271399999972,43.03401606800003],[-5.268267212999945,43.08345931200006],[-5.149311218999969,43.09701118600003],[-5.113725690999956,43.116627806000054],[-4.925914987999931,43.220158973000025],[-4.841023183999937,43.18078011600005],[-4.799611394999943,43.116627806000054],[-4.778200370999969,43.08345931200006],[-4.737845317999927,43.02094402500006]]]]}},{"type":"Feature","properties":{"province_code":"25","province":"Lleida"},"geometry":{"type":"MultiPolygon","coordinates":[[[[0.670759356000076,42.679686692000075],[0.680340775000047,42.74663940000005],[0.71548432000003,42.84345630200005],[0.858215053000038,42.82574115800003],[1.189416940000058,42.74663940000005],[1.346086380000031,42.70922165300004],[1.442566157000044,42.60366785300005],[1.465675397000041,42.44509236000005],[1.725801230000059,42.50440199700006],[1.731010891000039,42.49240083700005],[1.842310683000051,42.306438436000064],[1.691403382000033,42.27294634200007],[1.719764471000076,42.159713002000046],[1.669516699000042,42.004578793000064],[1.615826856000069,41.83881758200005],[1.560077088000071,41.77570425500005],[1.419960815000024,41.77239235300004],[1.392531732000066,41.575200163000034],[1.210762625000029,41.55749635900003],[0.929873954000072,41.35360514900003],[0.670759356000076,41.317905848000066],[0.385557770000048,41.278612432000045],[0.33594836900005,41.40743234900003],[0.430790904000048,41.563455926000074],[0.345471248000024,41.68823518100004],[0.580183057000056,41.86638125300004],[0.633083873000032,42.004578793000064],[0.670759356000076,42.103001832000075],[0.750711472000035,42.31186790300006],[0.705701417000057,42.48154886900005],[0.747495982000032,42.59837678400004],[0.670759356000076,42.679686692000075]]]]}},{"type":"Feature","properties":{"province_code":"26","province":"Rioja, La"},"geometry":{"type":"MultiPolygon","coordinates":[[[[-1.847183446999964,42.00798811400006],[-1.856539460999954,41.96638832300005],[-1.948536339999976,41.95374438700003],[-2.048242663999929,41.94004087400003],[-2.165755268999931,42.08810586300007],[-2.360180133999961,42.13743828100007],[-2.484271507999949,42.11501135000003],[-2.604065041999945,42.00280492100006],[-2.72025864799997,42.016106415000024],[-2.755031200999952,42.10493022000003],[-2.913637747999928,42.022838568000054],[-3.099689932999979,42.16843345500007],[-3.100989139999967,42.25671424300003],[-3.102354272999946,42.349474644000054],[-3.073675281999954,42.54671302700007],[-3.061592807999943,42.62980966600003],[-2.858067526999946,42.63838417900007],[-2.711785426999938,42.601319673000035],[-2.681149991999973,42.54671302700007],[-2.651812487999962,42.494419899000036],[-2.420719172999952,42.489269353000054],[-1.948536339999976,42.335045973000035],[-1.713639671999942,42.19709071200003],[-1.711174422999932,42.147687520000034],[-1.877126738999948,42.09388218300006],[-1.847183446999964,42.00798811400006]]]]}},{"type":"Feature","properties":{"province_code":"27","province":"Lugo"},"geometry":{"type":"MultiPolygon","coordinates":[[[[-7.031836889999965,43.54447142200007],[-7.146426466999969,43.378309383000044],[-6.947987612999952,43.16158940200006],[-6.851693034999926,43.151469752000025],[-6.879158593999932,43.116627806000054],[-6.905304986999965,43.08345931200006],[-6.942346933999943,43.03646906000006],[-6.896358569999961,42.98920557100007],[-6.824167129999978,42.91501247000008],[-6.871793013999934,42.801609978000045],[-6.948938341999963,42.74663940000005],[-7.077069196999958,42.508000681000055],[-7.20131250299994,42.36835521100005],[-7.353024024999968,42.430616857000075],[-7.55926894199996,42.39257868300007],[-7.839925233999963,42.48974910700008],[-7.898146308999969,42.54671302700007],[-7.930711001999953,42.578574556000035],[-7.910613119999937,42.74663940000005],[-7.999684701999968,42.84885816700006],[-7.919590770999946,42.98920557100007],[-7.929623812999978,43.08345931200006],[-7.933317697999939,43.22848987400005],[-7.76473933799997,43.50519325300007],[-7.699736359999974,43.735114829000054],[-7.462374818999933,43.71558585100007],[-7.259477599999968,43.58099527200005],[-7.031836889999965,43.54447142200007]]]]}},{"type":"Feature","properties":{"province_code":"28","province":"Madrid"},"geometry":{"type":"MultiPolygon","coordinates":[[[[-3.168355992999977,40.28946536900003],[-3.139240858999926,40.25140363000003],[-3.067810462999944,40.15802383600004],[-3.161419552999973,40.06489718900008],[-3.344420395999975,40.03359108600006],[-3.686281461999954,39.97510863700006],[-3.659424231999935,40.11358842300007],[-4.084744069999942,40.25889574000007],[-4.579075753999973,40.21719598300007],[-4.336584525999967,40.422896233000074],[-4.301553650999949,40.56649845800007],[-4.160293592999949,40.689853421000066],[-3.983231521999926,40.80500439000008],[-3.903603600999929,40.95167775600004],[-3.539573247999954,41.164993407000054],[-3.408643237999968,41.01996134800004],[-3.485499847999961,40.77941830200007],[-3.344420395999975,40.640031805000035],[-3.212937716999932,40.51012692000006],[-3.149121389999948,40.39740958500005],[-3.168355992999977,40.28946536900003]]],[[[-3.713616839999929,39.93176974600004],[-3.778174128999979,39.88140581000005],[-3.887151986999925,39.92624632500008],[-3.788343589999954,39.97408580600006],[-3.713616839999929,39.93176974600004]]]]}},{"type":"Feature","properties":{"province_code":"29","province":"Málaga"},"geometry":{"type":"MultiPolygon","coordinates":[[[[-4.400380544999962,37.26671970700005],[-4.328132990999961,37.18407053800007],[-4.240488704999962,37.00076098100004],[-3.837720898999976,36.85121444300006],[-3.777457583999933,36.73792632300007],[-4.398289078999937,36.71176967300005],[-4.658433695999975,36.508970807000026],[-5.119621017999975,36.43067403600003],[-5.252405121999971,36.31127557600007],[-5.469907546999934,36.560362965000024],[-5.32042619799995,36.70711113300007],[-5.30073320899993,36.85192491000004],[-5.117464776999952,36.87973427000003],[-5.142422898999939,37.00389107400008],[-4.653374485999962,37.25585549700003],[-4.543513949999976,37.224323008000056],[-4.400380544999962,37.26671970700005]]],[[[-5.499919333999969,36.508100314000046],[-5.608868866999956,36.48657911400005],[-5.663598677999971,36.56329076900005],[-5.550790067999969,36.56559954100004],[-5.499919333999969,36.508100314000046]]]]}},{"type":"Feature","properties":{"province_code":"30","province":"Murcia"},"geometry":{"type":"MultiPolygon","coordinates":[[[[-1.629967653999927,37.37515068600004],[-1.849333891999947,37.470838763000074],[-1.948536339999976,37.591588745000024],[-2.012264873999925,37.850976209000066],[-2.207788807999975,37.91624804600008],[-2.341195296999956,38.025868986000035],[-2.218635899999924,38.186757503000024],[-2.053403906999961,38.28827985700008],[-1.948536339999976,38.31537537600008],[-1.76037458299993,38.36399232000008],[-1.631424142999947,38.31384282600004],[-1.524251939999942,38.350445904000026],[-1.396023774999946,38.68040042800004],[-1.181650855999976,38.74089987800005],[-1.079183152999974,38.68436993600005],[-1.026869790999967,38.65550941400005],[-1.064809203999971,38.397996385000056],[-0.99167323599994,38.26338831500004],[-1.008315391999929,38.09414515100008],[-0.932798724999941,38.01833479700008],[-0.762135483999941,37.84700783900007],[-0.825854597999978,37.726285345000065],[-0.751135018999946,37.61196032700008],[-0.932798724999941,37.59252901800005],[-1.079183152999974,37.57687128900005],[-1.314795188999938,37.55166950000006],[-1.629967653999927,37.37515068600004]]]]}},{"type":"Feature","properties":{"province_code":"31","province":"Navarra"},"geometry":{"type":"MultiPolygon","coordinates":[[[[-0.930306948999942,42.98920557100007],[-0.796602163999978,42.95853617600005],[-0.75423495299998,42.96026963300005],[-0.724501161999967,42.92015867100008],[-0.897151633999954,42.74663940000005],[-0.901080265999951,42.74269099800006],[-1.156965316999958,42.61773978000008],[-1.322165126999948,42.384947053000076],[-1.403231689999927,41.96413684000004],[-1.546461566999938,41.93081335900007],[-1.847183446999964,42.00798811400006],[-1.877126738999948,42.09388218300006],[-1.711174422999932,42.147687520000034],[-1.713639671999942,42.19709071200003],[-1.948536339999976,42.335045973000035],[-2.420719172999952,42.489269353000054],[-2.43492998399995,42.63050058600004],[-2.334329148999927,42.66213480700003],[-2.295699358999968,42.74663940000005],[-2.250807096999949,42.89569117600007],[-2.055404703999955,42.98920557100007],[-1.948536339999976,43.13659559800004],[-1.89564119299996,43.209547189000034],[-1.728903005999939,43.29608895400003],[-1.436838575999957,43.25126756600008],[-1.402896553999938,43.06407133400006],[-0.930306948999942,42.98920557100007]]],[[[-1.01917919899995,42.49144675300005],[-1.073123502999977,42.42865380200004],[-1.187177659999975,42.45943241900005],[-1.099005887999965,42.51979034900006],[-1.01917919899995,42.49144675300005]]]]}},{"type":"Feature","properties":{"province_code":"32","province":"Ourense"},"geometry":{"type":"MultiPolygon","coordinates":[[[[-7.077069196999958,42.508000681000055],[-6.828455592999944,42.450212932000056],[-6.767434739999942,42.354146867000054],[-6.784307801999944,42.25360863700007],[-6.97056211599994,42.13178154700006],[-6.985800483999981,41.971447057000034],[-7.159142738999947,41.97321846300008],[-7.20046440599998,41.87974942100004],[-7.416413120999948,41.82756413800007],[-7.73440209599994,41.902139745000056],[-8.051862724999978,41.82061392600008],[-8.165075344999934,41.81830214400003],[-8.19910237099998,41.921580078000034],[-8.100540088999935,42.03739001100007],[-8.19900032399994,42.15441906400008],[-8.23671319999994,42.25671424300003],[-8.315056478999963,42.469218315000035],[-8.179620377999981,42.550412797000035],[-7.930711001999953,42.578574556000035],[-7.898146308999969,42.54671302700007],[-7.839925233999963,42.48974910700008],[-7.55926894199996,42.39257868300007],[-7.353024024999968,42.430616857000075],[-7.20131250299994,42.36835521100005],[-7.077069196999958,42.508000681000055]]]]}},{"type":"Feature","properties":{"province_code":"33","province":"Asturias"},"geometry":{"type":"MultiPolygon","coordinates":[[[[-4.512301089999937,43.39320382100004],[-4.563856527999974,43.29601775900005],[-4.841023183999937,43.18078011600005],[-4.925914987999931,43.220158973000025],[-5.113725690999956,43.116627806000054],[-5.149311218999969,43.09701118600003],[-5.268267212999945,43.08345931200006],[-5.702271399999972,43.03401606800003],[-5.77690950899995,42.98920557100007],[-5.854862098999945,42.98920557100007],[-6.060525446999975,43.06644121200003],[-6.367229880999957,43.04242850900005],[-6.438319207999939,42.98920557100007],[-6.526853526999957,42.92292197000006],[-6.824167129999978,42.91501247000008],[-6.896358569999961,42.98920557100007],[-6.942346933999943,43.03646906000006],[-6.905304986999965,43.08345931200006],[-6.879158593999932,43.116627806000054],[-6.851693034999926,43.151469752000025],[-6.947987612999952,43.16158940200006],[-7.146426466999969,43.378309383000044],[-7.031836889999965,43.54447142200007],[-6.112061001999962,43.56359530800006],[-5.841577719999975,43.64071962200006],[-5.684995636999929,43.55381101800003],[-5.377456115999962,43.54949307900006],[-4.662752933999968,43.40493625200003],[-4.512301089999937,43.39320382100004]]]]}},{"type":"Feature","properties":{"province_code":"34","province":"Palencia"},"geometry":{"type":"MultiPolygon","coordinates":[[[[-4.081458444999953,42.76162308600004],[-4.104466642999967,42.74663940000005],[-4.257553179999945,42.64694447000005],[-4.300569014999951,42.40049547900003],[-4.216502820999949,42.19725448100007],[-4.077346667999961,42.12659144200006],[-3.99362659999997,41.98656793400005],[-4.040900398999952,41.76834453300006],[-4.462457244999939,41.78698345600003],[-4.919343521999963,41.90020876900007],[-5.002154599999926,42.28910468200007],[-4.91107855499996,42.44017764800003],[-4.893439531999945,42.74663940000005],[-4.889967421999927,42.84398512200005],[-4.765129168999977,42.98920557100007],[-4.737845317999927,43.02094402500006],[-4.662752933999968,43.02108869300008],[-4.427828427999941,43.04276324500006],[-4.361844361999943,42.98920557100007],[-4.081458444999953,42.76162308600004]]]]}},{"type":"Feature","properties":{"province_code":"35","province":"Palmas, Las"},"geometry":{"type":"MultiPolygon","coordinates":[[[[-14.397036739999976,28.096830578000038],[-14.000867553999967,28.665384637000045],[-13.868705233999947,28.70317204500003],[-13.834855810999954,28.544671848000064],[-13.936412858999972,28.272046803000023],[-14.26122222999993,28.088797630000045],[-14.397036739999976,28.096830578000038]]],[[[-15.843087026999967,27.97191646600004],[-15.687068775999933,28.146934170000065],[-15.54703581299998,28.159876988000065],[-15.428848038999945,28.117994203000023],[-15.368185078999943,27.94602443200006],[-15.42794185899993,27.80766406400005],[-15.619228308999936,27.73529314900003],[-15.793648925999946,27.838327829000036],[-15.843087026999967,27.97191646600004]]],[[[-13.898515970999938,28.876137742000026],[-13.78655449699994,29.056519511000033],[-13.537526770999932,29.149331698000026],[-13.488416633999975,29.282176640000046],[-13.443690584999956,29.247443257000043],[-13.489195585999937,28.99733389200003],[-13.794941563999942,28.84656650200003],[-13.898515970999938,28.876137742000026]]]]}},{"type":"Feature","properties":{"province_code":"36","province":"Pontevedra"},"geometry":{"type":"MultiPolygon","coordinates":[[[[-8.74396018899995,42.647217322000074],[-8.462765201999957,42.74663940000005],[-8.198368989999949,42.84230615100006],[-7.999684701999968,42.84885816700006],[-7.910613119999937,42.74663940000005],[-7.930711001999953,42.578574556000035],[-8.179620377999981,42.550412797000035],[-8.315056478999963,42.469218315000035],[-8.23671319999994,42.25671424300003],[-8.19900032399994,42.15441906400008],[-8.60265437499993,42.05390547800005],[-8.863185838999925,41.87206646300007],[-8.88293749199994,42.10330025700006],[-8.725750188999939,42.25671424300003],[-8.844493715999931,42.44585419200007],[-8.74396018899995,42.647217322000074]]]]}},{"type":"Feature","properties":{"province_code":"37","province":"Salamanca"},"geometry":{"type":"MultiPolygon","coordinates":[[[[-6.929864671999951,41.02933623200005],[-6.808730904999948,41.055148114000076],[-6.689786233999939,41.20524137500007],[-6.479713167999932,41.29437983400004],[-5.960396076999928,41.163100213000064],[-5.883022661999973,41.22648236400005],[-5.677934802999971,41.23483425300003],[-5.344483887999957,41.13787516300005],[-5.288770882999927,41.18200687600006],[-5.124956972999939,41.13205692400004],[-5.105121293999957,40.96037075700008],[-5.181298763999962,40.801390033000075],[-5.380140627999936,40.65979432900008],[-5.489815351999937,40.45720730100004],[-5.663079468999968,40.427672750000056],[-5.737602367999955,40.294163009000044],[-5.810616915999958,40.33994574500008],[-5.971416043999966,40.29927685800004],[-6.221805219999965,40.471405204000064],[-6.610104657999955,40.27651300400004],[-6.865144205999968,40.27069454400004],[-6.800541786999929,40.361405441000045],[-6.818517442999962,40.86282399000004],[-6.929864671999951,41.02933623200005]]]]}},{"type":"Feature","properties":{"province_code":"38","province":"Santa Cruz de Tenerife"},"geometry":{"type":"MultiPolygon","coordinates":[[[[-18.14757667599997,27.72596823500004],[-18.122575927999947,27.76244371100006],[-18.063126249999982,27.755304829000067],[-17.94884060499993,27.838010417000078],[-17.896230930999934,27.808802336000042],[-17.980101898999976,27.652128574000074],[-18.063126249999982,27.69464562400003],[-18.14757667599997,27.72596823500004]]],[[[-17.379646166999976,28.095360006000078],[-17.281427248999933,28.233662630000026],[-17.081572539999968,28.105144275000043],[-17.219820613999957,28.008154171000058],[-17.379646166999976,28.095360006000078]]],[[[-18.074256273999936,28.812073086000055],[-17.890584744999956,28.88871879900006],[-17.741857583999945,28.82458502600008],[-17.80890179599993,28.50255105100007],[-18.074256273999936,28.812073086000055]]],[[[-16.91844675699997,28.34704656100007],[-16.540285551999943,28.429809421000073],[-16.329277616999946,28.559644796000043],[-16.18883891799993,28.540968692000035],[-16.44857352799994,28.13445382100008],[-16.583852604999947,28.026281701000073],[-16.72370485099998,28.04824356000006],[-16.91844675699997,28.34704656100007]]]]}},{"type":"Feature","properties":{"province_code":"39","province":"Cantabria"},"geometry":{"type":"MultiPolygon","coordinates":[[[[-3.153338109999936,43.35322211300007],[-3.344420395999975,43.273476268000024],[-3.42320738199993,43.240595487000064],[-3.417607936999957,43.13331597700005],[-3.641969537999955,43.153569599000036],[-3.716995342999951,43.116627806000054],[-3.784357881999938,43.08345931200006],[-3.865122602999975,43.043691746000036],[-3.913778604999948,42.98920557100007],[-3.949682202999952,42.94899984700004],[-3.834423786999935,42.938972024000066],[-3.859018760999959,42.81856990600005],[-4.081458444999953,42.76162308600004],[-4.361844361999943,42.98920557100007],[-4.427828427999941,43.04276324500006],[-4.662752933999968,43.02108869300008],[-4.737845317999927,43.02094402500006],[-4.778200370999969,43.08345931200006],[-4.799611394999943,43.116627806000054],[-4.841023183999937,43.18078011600005],[-4.563856527999974,43.29601775900005],[-4.512301089999937,43.39320382100004],[-4.228531157999953,43.39463669500003],[-3.858478457999979,43.48247179900005],[-3.800612301999934,43.433157867000034],[-3.589209308999955,43.50252188700006],[-3.344420395999975,43.41867388400004],[-3.22657879999997,43.378309383000044],[-3.153338109999936,43.35322211300007]]]]}},{"type":"Feature","properties":{"province_code":"40","province":"Segovia"},"geometry":{"type":"MultiPolygon","coordinates":[[[[-3.541595980999944,41.57760252000003],[-3.344420395999975,41.41633462300007],[-3.20737305199998,41.304245],[-3.344420395999975,41.24679753000004],[-3.539573247999954,41.164993407000054],[-3.903603600999929,40.95167775600004],[-3.983231521999926,40.80500439000008],[-4.160293592999949,40.689853421000066],[-4.274096251999936,40.67707234200003],[-4.319343841999967,40.64759940300007],[-4.408897421999939,40.65187239100004],[-4.722127432999969,41.14933016300006],[-4.462852424999937,41.415599764000035],[-4.057839056999967,41.49838556000003],[-3.980689378999955,41.58336631900005],[-3.744672524999942,41.48098419100006],[-3.541595980999944,41.57760252000003]]]]}},{"type":"Feature","properties":{"province_code":"41","province":"Sevilla"},"geometry":{"type":"MultiPolygon","coordinates":[[[[-6.180307717999938,37.94107812100003],[-5.961068241999953,38.00594222700005],[-5.830018314999961,38.17321884100005],[-5.722340223999936,38.180294436000054],[-5.694119016999935,38.10408684500004],[-5.584845565999956,38.13175204100003],[-5.334483103999958,37.797548935000066],[-5.377740512999935,37.61459455600004],[-5.00965107199994,37.699528745000066],[-4.907746116999931,37.47366142100003],[-4.653374485999962,37.25585549700003],[-5.142422898999939,37.00389107400008],[-5.224678875999928,36.96077115300005],[-5.316878931999952,37.015009159000044],[-5.414262848999954,36.95839517200005],[-5.47262113599993,37.03868599700007],[-5.54474731199997,36.936509],[-5.664653329999965,36.95756081900004],[-5.935209098999962,36.847375810000074],[-6.331072252999945,36.898838021000074],[-6.372887946999981,37.05786097200007],[-6.327030582999953,37.45389024700006],[-6.406707713999936,37.59548436000006],[-6.517454419999979,37.64629216600008],[-6.451608574999966,37.72530430900008],[-6.150276743999939,37.81886115700007],[-6.180307717999938,37.94107812100003]]]]}},{"type":"Feature","properties":{"province_code":"42","province":"Soria"},"geometry":{"type":"MultiPolygon","coordinates":[[[[-2.913637747999928,42.022838568000054],[-2.755031200999952,42.10493022000003],[-2.72025864799997,42.016106415000024],[-2.604065041999945,42.00280492100006],[-2.484271507999949,42.11501135000003],[-2.360180133999961,42.13743828100007],[-2.165755268999931,42.08810586300007],[-2.048242663999929,41.94004087400003],[-1.948536339999976,41.95374438700003],[-1.856539460999954,41.96638832300005],[-1.797761774999969,41.69709604800005],[-1.948536339999976,41.601196955000034],[-1.972614309999926,41.57195945900003],[-1.966719854999951,41.42085750800004],[-2.101631304999955,41.41816679200008],[-2.149210393999965,41.35208429700003],[-2.138743593999948,41.211556004000045],[-2.051689751999959,41.14685816200006],[-2.415908782999963,41.07264280700008],[-2.697153919999948,41.25993633500008],[-3.139240858999926,41.29832823500004],[-3.20737305199998,41.304245],[-3.344420395999975,41.41633462300007],[-3.541595980999944,41.57760252000003],[-3.274583241999949,41.83189771600007],[-3.139240858999926,41.83477819600006],[-2.913637747999928,42.022838568000054]]]]}},{"type":"Feature","properties":{"province_code":"43","province":"Tarragona"},"geometry":{"type":"MultiPolygon","coordinates":[[[[0.515238434000025,40.522918609000044],[0.216369,40.70498446200003],[0.170485307000035,40.73293597800006],[0.216369,40.77952018500008],[0.260212760000059,40.824033316000055],[0.276517578000039,40.97334812300005],[0.220754469000042,41.07133057000004],[0.385557770000048,41.278612432000045],[0.670759356000076,41.317905848000066],[0.929873954000072,41.35360514900003],[1.210762625000029,41.55749635900003],[1.392531732000066,41.575200163000034],[1.645323423000036,41.19562168500005],[0.978006364000066,41.02947962700006],[0.726295112000059,40.81232438200004],[0.841315598000051,40.69141213700004],[0.670759356000076,40.63328625300005],[0.607420488000059,40.61170024900008],[0.515238434000025,40.522918609000044]]]]}},{"type":"Feature","properties":{"province_code":"44","province":"Teruel"},"geometry":{"type":"MultiPolygon","coordinates":[[[[-1.14236135699997,39.97185564500006],[-1.165153812999961,40.010108943000034],[-1.106957807999947,40.04730403900004],[-1.156246249999924,40.10466116300006],[-1.448831388999963,40.14535862400004],[-1.805663978999974,40.397994819000075],[-1.68160519099996,40.55841125100005],[-1.558157077999965,40.60493000300005],[-1.617433432999974,40.94374118600007],[-1.079183152999974,41.148491154000055],[-0.932798724999941,41.14045542400004],[-0.727045239999939,41.12916064700005],[-0.525686069999949,41.33273121000008],[0.013190789000021,41.08194288200008],[0.220754469000042,41.07133057000004],[0.276517578000039,40.97334812300005],[0.260212760000059,40.824033316000055],[0.216369,40.77952018500008],[0.170485307000035,40.73293597800006],[0.059323800000072,40.70419059400007],[-0.183231364999926,40.76744503500004],[-0.354661862999933,40.660299242000065],[-0.299269303999949,40.57305166900005],[-0.303614239999945,40.36619479600006],[-0.544115974999954,40.22414966100007],[-0.656249431999925,40.057788584000036],[-0.749893595999936,40.03997822800005],[-0.796602163999978,39.99058074800007],[-0.830521448999946,39.94153463300006],[-0.797643189999974,39.88107655500005],[-0.879667681999933,39.865055631000075],[-0.932798724999941,39.922598254000036],[-0.977386886999966,39.97088866300004],[-1.079183152999974,39.97148533200004],[-1.14236135699997,39.97185564500006]]]]}},{"type":"Feature","properties":{"province_code":"45","province":"Toledo"},"geometry":{"type":"MultiPolygon","coordinates":[[[[-5.33601643399993,40.11585607100005],[-4.972605187999932,40.12611076400003],[-4.724251926999955,40.263861027000075],[-4.579075753999973,40.21719598300007],[-4.084744069999942,40.25889574000007],[-3.659424231999935,40.11358842300007],[-3.686281461999954,39.97510863700006],[-3.344420395999975,40.03359108600006],[-3.161419552999973,40.06489718900008],[-3.139240858999926,39.98627192200007],[-3.107715273999929,39.87451116600005],[-2.919694152999966,39.633506287000046],[-2.931765930999973,39.471452973000055],[-3.139240858999926,39.477365227000064],[-3.233414729999936,39.480048827000076],[-3.344420395999975,39.41874659700005],[-3.538233068999943,39.31171468000008],[-3.851628925999933,39.26994509100007],[-4.128533820999962,39.376146377000055],[-4.054150205999974,39.51743841100006],[-4.081456481999965,39.57290460000007],[-4.240896004999968,39.49254609500008],[-4.539222174999963,39.51986420600008],[-4.686936371999934,39.44972949400005],[-4.75541113099996,39.415760083000066],[-4.775038716999973,39.505175466000026],[-4.847077011999943,39.53988747600005],[-4.940783379999971,39.395164385000044],[-4.952554687999964,39.395038562000025],[-5.180963280999947,39.586988113000075],[-5.165370677999931,39.77280950900007],[-5.285541595999973,39.766466276000074],[-5.387708429999975,39.894322626000076],[-5.33601643399993,40.11585607100005]],[[-3.887151986999925,39.92624632500008],[-3.778174128999979,39.88140581000005],[-3.713616839999929,39.93176974600004],[-3.788343589999954,39.97408580600006],[-3.887151986999925,39.92624632500008]]]]}},{"type":"Feature","properties":{"province_code":"46","province":"Valencia/València"},"geometry":{"type":"MultiPolygon","coordinates":[[[[-0.932798724999941,39.922598254000036],[-0.879667681999933,39.865055631000075],[-0.797643189999974,39.88107655500005],[-0.60046200499994,39.75570304100006],[-0.329219803999933,39.780536202000064],[-0.188466906999963,39.72195454700005],[-0.325691531999951,39.41473300800004],[-0.203883208999969,39.083105844000045],[-0.037615968999944,38.886413436000055],[-0.345531820999952,38.86366200700007],[-0.568792643999927,38.78965733500007],[-0.60333057899993,38.70467756000005],[-0.796602163999978,38.738405003000025],[-0.928884604999951,38.783840131000034],[-0.965578014999949,38.91021880100004],[-1.138901791999956,38.95183704500005],[-1.219333261999964,39.03303567700004],[-1.209847096999965,39.30276010500006],[-1.505244664999964,39.41763913300008],[-1.498262933999968,39.54773375100007],[-1.283472918999962,39.714247399000044],[-1.14236135699997,39.97185564500006],[-1.079183152999974,39.97148533200004],[-0.977386886999966,39.97088866300004],[-0.932798724999941,39.922598254000036]]],[[[-1.106957807999947,40.04730403900004],[-1.165153812999961,40.010108943000034],[-1.361223681999945,40.02141519600008],[-1.448831388999963,40.14535862400004],[-1.156246249999924,40.10466116300006],[-1.106957807999947,40.04730403900004]]]]}},{"type":"Feature","properties":{"province_code":"47","province":"Valladolid"},"geometry":{"type":"MultiPolygon","coordinates":[[[[-4.722127432999969,41.14933016300006],[-5.124956972999939,41.13205692400004],[-5.288770882999927,41.18200687600006],[-5.325833857999953,41.428255543000034],[-5.260789586999977,41.53643040400004],[-5.36639976999993,41.730779194000036],[-5.299206623999964,41.949136802000055],[-5.376311274999978,42.04145786700008],[-5.346286238999937,42.24023303000007],[-5.230233135999981,42.25671424300003],[-5.002154599999926,42.28910468200007],[-4.919343521999963,41.90020876900007],[-4.462457244999939,41.78698345600003],[-4.040900398999952,41.76834453300006],[-3.980689378999955,41.58336631900005],[-4.057839056999967,41.49838556000003],[-4.462852424999937,41.415599764000035],[-4.722127432999969,41.14933016300006]]],[[[-5.421605511999928,42.03066667600007],[-5.466826789999971,41.98225818800006],[-5.520905723999931,42.09712998200007],[-5.472304882999936,42.04883899600003],[-5.421605511999928,42.03066667600007]]]]}},{"type":"Feature","properties":{"province_code":"48","province":"Bizkaia"},"geometry":{"type":"MultiPolygon","coordinates":[[[[-2.41284679499995,43.32108296600006],[-2.546386833999975,43.08800894500007],[-2.816367095999965,43.04464778800008],[-2.998880339999971,43.16918428300005],[-3.141839496999978,43.16113650300008],[-3.261622676999934,43.18829810600005],[-3.344420395999975,43.159113330000025],[-3.417607936999957,43.13331597700005],[-3.42320738199993,43.240595487000064],[-3.344420395999975,43.273476268000024],[-3.153338109999936,43.35322211300007],[-2.790148401999943,43.42286995500007],[-2.41284679499995,43.32108296600006]]]]}},{"type":"Feature","properties":{"province_code":"49","province":"Zamora"},"geometry":{"type":"MultiPolygon","coordinates":[[[[-5.376311274999978,42.04145786700008],[-5.299206623999964,41.949136802000055],[-5.36639976999993,41.730779194000036],[-5.260789586999977,41.53643040400004],[-5.325833857999953,41.428255543000034],[-5.288770882999927,41.18200687600006],[-5.344483887999957,41.13787516300005],[-5.677934802999971,41.23483425300003],[-5.883022661999973,41.22648236400005],[-5.960396076999928,41.163100213000064],[-6.479713167999932,41.29437983400004],[-6.330944255999952,41.39549483700006],[-6.220442953999964,41.59860634100005],[-6.516592707999962,41.68293781500006],[-6.577088062999962,41.93515746000003],[-6.985800483999981,41.971447057000034],[-6.97056211599994,42.13178154700006],[-6.784307801999944,42.25360863700007],[-5.520905723999931,42.09712998200007],[-5.466826789999971,41.98225818800006],[-5.421605511999928,42.03066667600007],[-5.376311274999978,42.04145786700008]]]]}},{"type":"Feature","properties":{"province_code":"50","province":"Zaragoza"},"geometry":{"type":"MultiPolygon","coordinates":[[[[0.33594836900005,41.40743234900003],[0.385557770000048,41.278612432000045],[0.220754469000042,41.07133057000004],[0.013190789000021,41.08194288200008],[-0.525686069999949,41.33273121000008],[-0.727045239999939,41.12916064700005],[-0.932798724999941,41.14045542400004],[-1.079183152999974,41.148491154000055],[-1.617433432999974,40.94374118600007],[-1.828073933999974,41.09773920500004],[-1.948536339999976,41.124199711000074],[-2.051689751999959,41.14685816200006],[-2.138743593999948,41.211556004000045],[-2.149210393999965,41.35208429700003],[-2.101631304999955,41.41816679200008],[-1.966719854999951,41.42085750800004],[-1.972614309999926,41.57195945900003],[-1.948536339999976,41.601196955000034],[-1.797761774999969,41.69709604800005],[-1.856539460999954,41.96638832300005],[-1.847183446999964,42.00798811400006],[-1.546461566999938,41.93081335900007],[-1.403231689999927,41.96413684000004],[-1.322165126999948,42.384947053000076],[-1.156965316999958,42.61773978000008],[-0.901080265999951,42.74269099800006],[-0.849627045999966,42.32804726900008],[-0.747469416999934,42.25841916300004],[-0.842480101999968,41.99612897900005],[-0.661877063999952,41.93341143600003],[-0.484974880999971,41.72928963700008],[-0.179301117999955,41.57045412400004],[-0.046887008999931,41.39583270500003],[0.216369,41.39895682300005],[0.33594836900005,41.40743234900003]],[[-1.187177659999975,42.45943241900005],[-1.073123502999977,42.42865380200004],[-1.01917919899995,42.49144675300005],[-1.099005887999965,42.51979034900006],[-1.187177659999975,42.45943241900005]]]]}},{"type":"Feature","properties":{"province_code":"51","province":"Ceuta"},"geometry":{"type":"MultiPolygon","coordinates":[[[[-5.382030037999925,35.91260328800007],[-5.37807825799996,35.91634251200003],[-5.36619785399995,35.91696062900007],[-5.360083919999965,35.913756686000056],[-5.344183880999935,35.871149659000025],[-5.382030037999925,35.91260328800007]]]]}},{"type":"Feature","properties":{"province_code":"52","province":"Melilla"},"geometry":{"type":"MultiPolygon","coordinates":[[[[-2.952482233999945,35.31990132300007],[-2.946098933999963,35.31429909700006],[-2.945482495999954,35.30752620000004],[-2.932295653999972,35.29356603400004],[-2.935818074999929,35.29130747100004],[-2.93709492499994,35.28313634600005],[-2.929703441999948,35.271704476000025],[-2.96108632399995,35.284485507000056],[-2.952482233999945,35.31990132300007]]]]}}]}